GSLV R/B                
1 54149U 22138AN  26062.70371657  .00005236  00000+0  45381-3 0  9990
2 54149  87.3886 168.3653 0022117 167.4561 192.7226 14.96723025183033
XRISM                   
1 57800U 23137A   26062.82919114  .00008236  00000+0  46956-3 0  9998
2 57800  31.0031 321.5673 0008170 339.2113  20.8192 15.11419327136900
ACS3                    
1 59588U 24077B   26062.73701596  .00028875  00000+0  23356-1 0  9998
2 59588  97.2111   5.1871 0055273  92.6994 268.0498 13.89310612 93374
SZ-21 MODULE            
1 66515U 25246C   26062.76916662  .00044751  00000+0  39281-3 0  9997
2 66515  41.4730 239.7929 0001447 287.9355  72.1329 15.68011820 17149
